{
  "norad_id": 59746,
  "name": "STARLINK-31681",
  "history": [
    {
      "epoch": "2026-03-28T22:25:28.303104Z",
      "apogee_km": 483.7949319307527,
      "perigee_km": 482.0686870182899,
      "latitude_deg": -4.541594919545534e-05,
      "longitude_deg": -94.849256632315,
      "height_km": 482.7452424403382,
      "semi_major_axis_km": 6861.068809474521,
      "eccentricity": 0.0001258,
      "inclination_deg": 43.0046,
      "raan_deg": 67.8664,
      "arg_perigee_deg": 267.5868,
      "mean_anomaly_deg": 92.4839,
      "mean_motion_rev_day": 15.2761917
    },
    {
      "epoch": "2026-03-28T22:25:28.303968Z",
      "apogee_km": 483.79479470937713,
      "perigee_km": 482.06882423966545,
      "latitude_deg": -4.699672146239232e-05,
      "longitude_deg": -94.84926192768846,
      "height_km": 482.74523666442957,
      "semi_major_axis_km": 6861.068809474521,
      "eccentricity": 0.00012578,
      "inclination_deg": 43.0046,
      "raan_deg": 67.8664,
      "arg_perigee_deg": 267.5868,
      "mean_anomaly_deg": 92.4839,
      "mean_motion_rev_day": 15.2761917
    },
    {
      "epoch": "2026-03-29T23:32:02.073984Z",
      "apogee_km": 483.8290879033384,
      "perigee_km": 482.36490056896946,
      "latitude_deg": -4.810312868294506e-06,
      "longitude_deg": -118.42943048967122,
      "height_km": 482.94769349076734,
      "semi_major_axis_km": 6861.233994236154,
      "eccentricity": 0.0001067,
      "inclination_deg": 43.0074,
      "raan_deg": 61.9581,
      "arg_perigee_deg": 264.2404,
      "mean_anomaly_deg": 95.8326,
      "mean_motion_rev_day": 15.27564004
    },
    {
      "epoch": "2026-03-30T05:48:38.593440Z",
      "apogee_km": 483.8009430849743,
      "perigee_km": 482.1773261964736,
      "latitude_deg": 4.935290737218073e-06,
      "longitude_deg": 145.68423632480247,
      "height_km": 482.85590944402406,
      "semi_major_axis_km": 6861.126134640724,
      "eccentricity": 0.00011832,
      "inclination_deg": 43.0037,
      "raan_deg": 60.4817,
      "arg_perigee_deg": 263.6445,
      "mean_anomaly_deg": 96.4272,
      "mean_motion_rev_day": 15.27600025
    },
    {
      "epoch": "2026-03-30T07:22:48.218592Z",
      "apogee_km": 483.7580524663899,
      "perigee_km": 482.23899706120756,
      "latitude_deg": 4.297906066521031e-05,
      "longitude_deg": 121.71032164888373,
      "height_km": 482.84559620025186,
      "semi_major_axis_km": 6861.1355247637985,
      "eccentricity": 0.0001107,
      "inclination_deg": 43.0043,
      "raan_deg": 60.1123,
      "arg_perigee_deg": 264.6999,
      "mean_anomaly_deg": 95.3727,
      "mean_motion_rev_day": 15.27596889
    },
    {
      "epoch": "2026-03-30T23:04:22.082880Z",
      "apogee_km": 484.0179581028997,
      "perigee_km": 482.0633458134089,
      "latitude_deg": -9.096232533791544e-06,
      "longitude_deg": -118.01851225674156,
      "height_km": 482.90594685253376,
      "semi_major_axis_km": 6861.177651958154,
      "eccentricity": 0.00014244,
      "inclination_deg": 43.005,
      "raan_deg": 56.4191,
      "arg_perigee_deg": 264.832,
      "mean_anomaly_deg": 95.2369,
      "mean_motion_rev_day": 15.2758282
    },
    {
      "epoch": "2026-03-31T14:45:56.712672Z",
      "apogee_km": 483.88328963069216,
      "perigee_km": 482.30657853223966,
      "latitude_deg": -1.1849627766676568e-05,
      "longitude_deg": 2.251208248410868,
      "height_km": 483.01357302866046,
      "semi_major_axis_km": 6861.231934081466,
      "eccentricity": 0.0001149,
      "inclination_deg": 43.0049,
      "raan_deg": 52.7276,
      "arg_perigee_deg": 259.65,
      "mean_anomaly_deg": 100.4222,
      "mean_motion_rev_day": 15.27564692
    },
    {
      "epoch": "2026-04-01T14:18:15.498144Z",
      "apogee_km": 483.8052279098629,
      "perigee_km": 482.1983492055824,
      "latitude_deg": 6.728933152541367e-06,
      "longitude_deg": 2.667362572201495,
      "height_km": 482.7145224505259,
      "semi_major_axis_km": 6861.138788557722,
      "eccentricity": 0.0001171,
      "inclination_deg": 43.0044,
      "raan_deg": 47.1887,
      "arg_perigee_deg": 274.5881,
      "mean_anomaly_deg": 85.4837,
      "mean_motion_rev_day": 15.27595799
    }
  ]
}